NORAD_CAT_ID,OBJECT_NAME,OBJECT_TYPE,EPOCH,MEAN_MOTION,ECCENTRICITY,INCLINATION,RA_OF_ASC_NODE,ARG_OF_PERICENTER,MEAN_ANOMALY,BSTAR,MEAN_MOTION_DOT,MEAN_MOTION_DDOT,TLE_LINE0,TLE_LINE1,TLE_LINE2,SEMIMAJOR_AXIS,PERIOD,APOGEE,PERIGEE,DECAYED
52685.0,STARLINK-4029,PAYLOAD,2022-11-25 11:00:43,15.08840082,0.0002386,53.2178,132.1594,42.7611,317.3567,-1.2617e-05,-4.89e-06,0.0,0 STARLINK-4029,1 52685U 22053AF  22329.45884202 -.00000489  00000-0 -12617-4 0  9993,2 52685  53.2178 132.1594 0002386  42.7611 317.3567 15.08840082 29929,6917.88,95.438,541.396,538.095,0.0
52685.0,STARLINK-4029,PAYLOAD,2022-11-25 17:22:16,15.08842982,0.0002402,53.2177,130.97,43.2566,316.8614,1.467e-05,-5.5e-07,0.0,0 STARLINK-4029,1 52685U 22053AF  22329.72379945 -.00000055  00000-0  14670-4 0  9995,2 52685  53.2177 130.9700 0002402  43.2566 316.8614 15.08842982 29969,6917.871,95.437,541.398,538.075,0.0
52685.0,STARLINK-4029,PAYLOAD,2022-11-25 22:08:25,15.08844814,0.0002399,53.2176,130.0777,44.0236,316.0947,4.3616e-06,-2.19e-06,0.0,0 STARLINK-4029,1 52685U 22053AF  22329.92251826 -.00000219  00000-0  43616-5 0  9999,2 52685  53.2176 130.0777 0002399  44.0236 316.0947 15.08844814 29621,6917.866,95.437,541.39,538.071,0.0
52685.0,STARLINK-4029,PAYLOAD,2022-11-26 10:51:30,15.08849299,0.0002418,53.2176,127.6987,44.3304,315.7881,3.0302e-05,1.94e-06,0.0,0 STARLINK-4029,1 52685U 22053AF  22330.45243237  .00000194  00000-0  30302-4 0  9994,2 52685  53.2176 127.6987 0002418  44.3304 315.7881 15.08849299 30073,6917.852,95.437,541.39,538.044,0.0
52685.0,STARLINK-4029,PAYLOAD,2022-11-26 20:23:48,15.08845997,0.0002468,53.2175,125.9151,43.701,316.4177,0.00013872,1.92e-05,0.0,0 STARLINK-4029,1 52685U 22053AF  22330.84987012  .00001920  00000-0  13872-3 0  9993,2 52685  53.2175 125.9151 0002468  43.7010 316.4177 15.08845997 30132,6917.861999999999,95.437,541.434,538.02,0.0
52685.0,STARLINK-4029,PAYLOAD,2022-11-27 10:42:17,15.08838785,0.0002495,53.2172,123.2384,45.559,314.5606,4.4194e-05,4.15e-06,0.0,0 STARLINK-4029,1 52685U 22053AF  22331.44603661  .00000415  00000-0  44194-4 0  9995,2 52685  53.2172 123.2384 0002495  45.5590 314.5606 15.08838785 29851,6917.884,95.438,541.475,538.023,0.0
52685.0,STARLINK-4029,PAYLOAD,2022-11-27 17:03:50,15.0884105,0.0002501,53.2176,122.0491,45.2977,314.8219,2.8227e-05,1.61e-06,0.0,0 STARLINK-4029,1 52685U 22053AF  22331.71099599  .00000161  00000-0  28227-4 0  9991,2 52685  53.2176 122.0491 0002501  45.2977 314.8219 15.08841050 30264,6917.877,95.437,541.472,538.012,0.0
52685.0,STARLINK-4029,PAYLOAD,2022-11-28 10:33:05,15.08834417,0.0002499,53.2194,118.7793,49.1655,310.9553,-6.8766e-05,-1.383e-05,0.0,0 STARLINK-4029,1 52685U 22053AF  22332.43964420 -.00001383  00000-0 -68766-4 0  9996,2 52685  53.2194 118.7793 0002499  49.1655 310.9553 15.08834417 30002,6917.897,95.438,541.491,538.034,0.0
52685.0,STARLINK-4029,PAYLOAD,2022-11-29 10:23:51,15.08841445,0.0002445,53.2193,114.3186,51.1856,308.9354,5.381e-05,5.68e-06,0.0,0 STARLINK-4029,1 52685U 22053AF  22333.43323737  .00000568  00000-0  53810-4 0  9993,2 52685  53.2193 114.3186 0002445  51.1856 308.9354 15.08841445 30157,6917.876,95.437,541.432,538.05,0.0
52685.0,STARLINK-4029,PAYLOAD,2022-11-29 13:34:37,15.08842795,0.0002405,53.2192,113.7239,46.6943,313.4249,7.3754e-05,8.86e-06,0.0,0 STARLINK-4029,1 52685U 22053AF  22333.56571620  .00000886  00000-0  73754-4 0  9995,2 52685  53.2192 113.7239 0002405  46.6943 313.4249 15.08842795 30546,6917.871999999999,95.437,541.401,538.073,0.0
52685.0,STARLINK-4029,PAYLOAD,2022-11-30 10:14:39,15.08834309,0.000243,53.2189,109.8583,50.9064,309.2144,5.5825e-05,6e-06,0.0,0 STARLINK-4029,1 52685U 22053AF  22334.42684440  .00000600  00000-0  55825-4 0  9999,2 52685  53.2189 109.8583 0002430  50.9064 309.2144 15.08834309 30303,6917.898,95.438,541.444,538.082,0.0
52685.0,STARLINK-4029,PAYLOAD,2022-11-30 18:11:35,15.08834939,0.0002466,53.218,108.3712,47.0609,313.059,6.7343e-05,7.83e-06,0.0,0 STARLINK-4029,1 52685U 22053AF  22334.75804482  .00000783  00000-0  67343-4 0  9995,2 52685  53.2180 108.3712 0002466  47.0609 313.0590 15.08834939 30726,6917.896,95.438,541.467,538.055,0.0
52685.0,STARLINK-4029,PAYLOAD,2022-12-01 02:08:30,15.08844142,0.000257,53.2185,106.8843,42.4632,317.6559,7.8099e-05,9.55e-06,0.0,0 STARLINK-4029,1 52685U 22053AF  22335.08923819  .00000955  00000-0  78099-4 0  9999,2 52685  53.2185 106.8843 0002570  42.4632 317.6559 15.08844142 30407,6917.868,95.437,541.511,537.955,0.0
52685.0,STARLINK-4029,PAYLOAD,2022-12-01 10:05:26,15.08837178,0.000262,53.2189,105.3976,51.3891,308.7335,1.761e-05,-8e-08,0.0,0 STARLINK-4029,1 52685U 22053AF  22335.42044481 -.00000008  00000-0  17610-4 0  9998,2 52685  53.2189 105.3976 0002620  51.3891 308.7335 15.08837178 30824,6917.889,95.438,541.567,537.942,0.0
52685.0,STARLINK-4029,PAYLOAD,2022-12-01 14:51:35,15.08838494,0.0002622,53.2189,104.5056,47.4349,312.6864,4.0446e-06,-2.24e-06,0.0,0 STARLINK-4029,1 52685U 22053AF  22335.61916467 -.00000224  00000-0  40446-5 0  9995,2 52685  53.2189 104.5056 0002622  47.4349 312.6864 15.08838494 30485,6917.885,95.438,541.564,537.936,0.0
52685.0,STARLINK-4029,PAYLOAD,2022-12-02 01:59:17,15.0884268,0.0002668,53.2194,102.4246,48.5525,311.5696,8.3629e-05,1.043e-05,0.0,0 STARLINK-4029,1 52685U 22053AF  22336.08283856  .00001043  00000-0  83629-4 0  9994,2 52685  53.2194 102.4246 0002668  48.5525 311.5696 15.08842680 30558,6917.871999999999,95.437,541.5830000000002,537.8919999999998,0.0
52685.0,STARLINK-4029,PAYLOAD,2022-12-02 08:20:49,15.08846562,0.0002701,53.2195,101.2352,43.5053,316.6151,7.0708e-05,8.37e-06,0.0,0 STARLINK-4029,1 52685U 22053AF  22336.34779649  .00000837  00000-0  70708-4 0  9997,2 52685  53.2195 101.2352 0002701  43.5053 316.6151 15.08846562 30963,6917.86,95.437,541.594,537.857,0.0
52685.0,STARLINK-4029,PAYLOAD,2022-12-02 14:42:22,15.08844145,0.0002642,53.2198,100.0461,45.6523,314.4686,6.3724e-05,7.26e-06,0.0,0 STARLINK-4029,1 52685U 22053AF  22336.61275720  .00000726  00000-0  63724-4 0  9995,2 52685  53.2198 100.0461 0002642  45.6523 314.4686 15.08844145 31003,6917.868,95.437,541.56,537.905,0.0
52685.0,STARLINK-4029,PAYLOAD,2022-12-03 01:50:04,15.08836818,0.0002647,53.2191,97.9644,42.9129,317.2069,-8.0378e-06,-4.16e-06,0.0,0 STARLINK-4029,1 52685U 22053AF  22337.07644348 -.00000416  00000-0 -80378-5 0  9995,2 52685  53.2191  97.9644 0002647  42.9129 317.2069 15.08836818 30700,6917.89,95.438,541.586,537.924,0.0
52685.0,STARLINK-4029,PAYLOAD,2022-12-03 12:57:46,15.08833582,0.0002528,53.2189,95.8825,43.3372,316.7819,3.4819e-05,2.66e-06,0.0,0 STARLINK-4029,1 52685U 22053AF  22337.54012454  .00000266  00000-0  34819-4 0  9993,2 52685  53.2189  95.8825 0002528  43.3372 316.7819 15.08833582 31149,6917.9,95.438,541.514,538.016,0.0
52685.0,STARLINK-4029,PAYLOAD,2022-12-03 14:33:09,15.08834617,0.0002455,53.2185,95.5847,43.7303,316.3883,4.8033e-05,4.76e-06,0.0,0 STARLINK-4029,1 52685U 22053AF  22337.60636342  .00000476  00000-0  48033-4 0  9994,2 52685  53.2185  95.5847 0002455  43.7303 316.3883 15.08834617 31151,6917.897,95.438,541.46,538.063,0.0
52685.0,STARLINK-4029,PAYLOAD,2022-12-04 08:02:23,15.088425099999998,0.00024,53.2183,92.3131,43.9314,316.1868,4.5923e-05,4.43e-06,0.0,0 STARLINK-4029,1 52685U 22053AF  22338.33499777  .00000443  00000-0  45923-4 0  9993,2 52685  53.2183  92.3131 0002400  43.9314 316.1868 15.08842510 30896,6917.873000000001,95.437,541.398,538.077,0.0
52685.0,STARLINK-4029,PAYLOAD,2022-12-04 14:23:56,15.08835389,0.0002408,53.2187,91.1248,38.4751,321.6413,4.5526e-06,-2.16e-06,0.0,0 STARLINK-4029,1 52685U 22053AF  22338.59996359 -.00000216  00000-0  45526-5 0  9998,2 52685  53.2187  91.1248 0002408  38.4751 321.6413 15.08835389 31308,6917.894,95.438,541.425,538.094,0.0
52685.0,STARLINK-4029,PAYLOAD,2022-12-05 07:53:11,15.08821669,0.0002383,53.2196,87.8532,38.9482,321.1681,0.00033092,4.98e-05,0.0,0 STARLINK-4029,1 52685U 22053AF  22339.32860409  .00004980  00000-0  33092-3 0  9990,2 52685  53.2196  87.8532 0002383  38.9482 321.1681 15.08821669 31414,6917.936,95.439,541.45,538.153,0.0
52685.0,STARLINK-4029,PAYLOAD,2022-12-05 14:14:43,15.08827244,0.0002383,53.2195,86.6644,36.7016,323.4139,0.0003375,5.085e-05,0.0,0 STARLINK-4029,1 52685U 22053AF  22339.59356263  .00005085  00000-0  33750-3 0  9995,2 52685  53.2195  86.6644 0002383  36.7016 323.4139 15.08827244 31455,6917.919,95.438,541.433,538.136,0.0
52685.0,STARLINK-4029,PAYLOAD,2022-12-05 23:47:01,15.08848736,0.0002502,53.22,84.8805,37.3208,322.7958,0.00010596,1.399e-05,0.0,0 STARLINK-4029,1 52685U 22053AF  22339.99099283  .00001399  00000-0  10596-3 0  9992,2 52685  53.2200  84.8805 0002502  37.3208 322.7958 15.08848736 31140,6917.854,95.437,541.45,537.988,0.0
52685.0,STARLINK-4029,PAYLOAD,2022-12-06 14:05:31,15.08826149,0.0002161,53.2192,82.2048,15.2409,344.8647,-1.8842e-05,-5.88e-06,0.0,0 STARLINK-4029,1 52685U 22053AF  22340.58717013 -.00000588  00000-0 -18842-4 0  9991,2 52685  53.2192  82.2048 0002161  15.2409 344.8647 15.08826149 31234,6917.9230000000025,95.438,541.283,538.293,0.0
52685.0,STARLINK-4029,PAYLOAD,2022-12-06 15:40:54,15.08825991,0.0002335,53.2192,81.9078,32.5535,327.5601,-2.1863e-05,-6.36e-06,0.0,0 STARLINK-4029,1 52685U 22053AF  22340.65341172 -.00000636  00000-0 -21863-4 0  9999,2 52685  53.2192  81.9078 0002335  32.5535 327.5601 15.08825991 31612,6917.9230000000025,95.438,541.404,538.173,0.0
52685.0,STARLINK-4029,PAYLOAD,2022-12-07 15:31:42,15.08829283,0.0002492,53.2184,77.4465,32.366,327.7485,-3.8531e-05,-9.01e-06,0.0,0 STARLINK-4029,1 52685U 22053AF  22341.64701805 -.00000901  00000-0 -38531-4 0  9997,2 52685  53.2184  77.4465 0002492  32.3660 327.7485 15.08829283 31399,6917.913000000001,95.438,541.502,538.054,0.0
52685.0,STARLINK-4029,PAYLOAD,2022-12-07 23:28:36,15.08853132,0.0002512,53.2187,75.9602,33.8286,326.2866,0.00011553,1.551e-05,0.0,0 STARLINK-4029,1 52685U 22053AF  22341.97819833  .00001551  00000-0  11553-3 0  9998,2 52685  53.2187  75.9602 0002512  33.8286 326.2866 15.08853132 31444,6917.84,95.437,541.443,537.967,0.0
